GAOFEN-5 01             
1 43461U 18043A   26121.88872105  .00000333  00000+0  78564-4 0  9997
2 43461  98.4542  92.5128 0001221 177.4127 182.7079 14.60572312424931
GAOFEN-6                
1 43484U 18048A   26121.92351853  .00000304  00000+0  50580-4 0  9990
2 43484  97.7790 186.2957 0011343 331.5996  28.4594 14.76574686426569
GAOFEN-11 01            
1 43585U 18063A   26121.95703035  .00010078  00000+0  15764-3 0  9998
2 43585  97.1326 189.0058 0005363 130.3133 229.8591 15.53942973433168
ICESAT-2                
1 43613U 18070A   26121.86127410  .00003266  00000+0  11851-3 0  9999
2 43613  92.0024 278.4807 0001644  73.3242 286.8188 15.28283406425380
HYSIS                   
1 43719U 18096A   26121.92492411  .00000720  00000+0  10534-3 0  9996
2 43719  97.9864 189.0293 0000765  96.2361 263.8938 14.78679369400582
KAZSTSAT                
1 43783U 18099AB  26121.66255562  .00000601  00000+0  53101-4 0  9991
2 43783  97.4350 155.6987 0004427 182.6160 177.5041 14.99783855404335
SAUDISAT 5A             
1 43831U 18102A   26121.92468248  .00005908  00000+0  22164-3 0  9995
2 43831  97.3100 184.4055 0008119 302.8419  57.2038 15.27573837408616
SAUDISAT 5B             
1 43833U 18102C   26121.95169468  .00005374  00000+0  20013-3 0  9990
2 43833  97.3203 187.4181 0008889 305.0465  54.9940 15.27855396408737
GAOFEN-10R              
1 44622U 19066A   26121.93572192  .00001291  00000+0  16573-3 0  9997
2 44622  98.0471  75.1902 0004262 295.5792  64.4981 14.82956326355524
CARTOSAT-3              
1 44804U 19081A   26121.92083659  .00004304  00000+0  20671-3 0  9992
2 44804  97.4335 184.5224 0010759 317.5283  42.5118 15.19329086356447
GAOFEN-12 01            
1 44819U 19082A   26121.98413750  .00000399  00000+0  58905-4 0  9996
2 44819  97.8116 129.5826 0001719 123.8510 236.2867 14.80420231347251
CSG-1                   
1 44873U 19092A   26121.94165713  .00000470  00000+0  65537-4 0  9995
2 44873  97.8887 306.2134 0001328  94.6437 265.4927 14.82160312344623
NEMO-HD                 
1 46277U 20061F   26121.92388137  .00011461  00000+0  25617-3 0  9994
2 46277  97.1952 184.3687 0001829 131.9165 228.2240 15.43660021314842
SENTINEL-6A             
1 46984U 20086A   26121.70838919 -.00000059  00000+0  96128-5 0  9999
2 46984  66.0415 231.5878 0007819 270.2531  89.7589 12.80930888254378
GAOFEN-12 02            
1 48079U 21026A   26121.99030060  .00000398  00000+0  59277-4 0  9991
2 48079  97.9925 120.3624 0005624  38.6227 321.5386 14.80258556274920
PLEIADES NEO 3          
1 48268U 21034A   26120.77782369  .00000546  00000+0  75953-4 0  9995
2 48268  97.8935 196.2253 0001371 102.9009 257.2357 14.81675220270637
PLEIADES NEO 4          
1 49070U 21073E   26121.75703545 -.00000086  00000+0 -43400-5 0  9992
2 49070  97.8935 197.1861 0001349  93.2058 266.9310 14.81672062254498
LANDSAT 9               
1 49260U 21088A   26121.63880409  .00000378  00000+0  93762-4 0  9998
2 49260  98.1868 192.5465 0001310 105.9900 254.1443 14.57124935244222
CSG-2                   
1 51444U 22008A   26121.90789847  .00000205  00000+0  32266-4 0  9993
2 51444  97.8879 306.1768 0001387  84.2074 275.9298 14.82155481229737
GAOFEN-12 03            
1 52912U 22069A   26121.94369706  .00001053  00000+0  14609-3 0  9995
2 52912  97.8341  10.9695 0001027  47.5340 312.5959 14.79959936207775
SWOT                    
1 54754U 22173A   26121.90028263  .00000102  00000+0  70663-4 0  9990
2 54754  77.6082  97.7923 0000837 138.8461 221.2754 14.00171343172673
GAOFEN-12 04            
1 57654U 23123A   26121.89863830  .00001073  00000+0  14822-3 0  9995
2 57654  97.9133  40.5824 0001336  92.8265 267.3100 14.80137275145781
PARS 1                  
1 59065U 24039Q   26121.94826065  .00012170  00000+0  26172-3 0  9996
2 59065  97.4804 101.4541 0007352 284.6702  75.3731 15.44779386121500
RESURS-P 4              
1 59371U 24061A   26121.95355030  .00003626  00000+0  12035-3 0  9990
2 59371  97.2729  70.6768 0002220  55.3160 304.8291 15.31861546116682
LEGION 1                
1 59625U 24081A   26121.91283291  .00004528  00000+0  23360-3 0  9994
2 59625  97.5025 200.2597 0010306 172.0792 188.0606 15.16805869110527
LEGION 2                
1 59626U 24081B   26121.87958395  .00004690  00000+0  24011-3 0  9998
2 59626  97.5026 200.3179 0011784 146.6096 213.5883 15.17038930110520
ALOS-4 (DAICHI-4)       
1 60182U 24123A   26121.82998899  .00001728  00000+0  23811-3 0  9998
2 60182  97.9215 219.6600 0001600  97.0273 263.1121 14.79478626 99021
LEGION 3                
1 60452U 24146A   26121.86872286  .00004453  00000+0  24320-3 0  9992
2 60452  45.0014 278.9013 0009177 257.9072 102.0778 15.15698704 94991
LEGION 4                
1 60453U 24146B   26121.87033916  .00003905  00000+0  21574-3 0  9992
2 60453  45.0028  10.7833 0012015  46.1162 314.0707 15.15559059 93841
SENTINEL-2C             
1 60989U 24157A   26121.94878429  .00000114  00000+0  60126-4 0  9998
2 60989  98.5629 197.3863 0001516  99.0992 261.0363 14.30818127 86371
IONOSFERA-M 1           
1 61735U 24199A   26121.91918646  .00000061  00000+0  46908-4 0  9990
2 61735  98.7235 355.5658 0000198  34.1430 325.9761 14.22745486121121
IONOSFERA-M 2           
1 61736U 24199B   26121.88326272  .00000066  00000+0  49193-4 0  9999
2 61736  98.7234 355.4412 0001982  90.5513 269.5892 14.22748360124246
BIOMASS                 
1 63772U 25090A   26121.94225267  .00001046  00000+0  19285-3 0  9998
2 63772  98.0747 309.9271 0001394  87.7314 272.4050 14.67535554 53902
GOSAT-GW (IBUKI GW)     
1 64694U 25141A   26121.89495017 -.00000974  00000+0 -16334-3 0  9998
2 64694  98.0552  59.9694 0001397  82.5367 277.5997 14.67558832 45052
IONOSFERA-M 3           
1 64876U 25155A   26121.92989729  .00000050  00000+0  42641-4 0  9991
2 64876  98.5997  85.0084 0001741  36.3014 323.8281 14.21478232 39839
IONOSFERA-M 4           
1 64877U 25155B   26121.89441725  .00000046  00000+0  40521-4 0  9997
2 64877  98.5996  84.8917 0001232  52.7389 307.3900 14.21480207 39822
MICROCARB               
1 64899U 25156A   26121.93569359  .00000561  00000+0  96473-4 0  9990
2 64899  97.9834 199.8983 0017577  62.8763 297.4235 14.72276268 41163
CO3D 3                  
1 64900U 25156B   26118.55724756  .00004079  00000+0  19143-3 0  9997
2 64900  97.4329 197.9633 0001048  49.5521 310.5805 15.20201512 41996
CO3D 4                  
1 64901U 25156C   26118.49158032  .00002003  00000+0  95596-4 0  9991
2 64901  97.4326 197.8981 0002016 101.4971 258.6491 15.20211498 41988
CO3D 2                  
1 64902U 25156D   26118.58987872  .00004362  00000+0  20458-3 0  9998
2 64902  97.4327 197.8942 0000590  63.5253 296.6042 15.20192497 41995
CO3D 1                  
1 64903U 25156E   26103.64843334  .00003151  00000+0  12932-3 0  9997
2 64903  98.0928 182.3847 0110033   5.8142 354.4339 15.19681462 39726
SENTINEL-6B             
1 66514U 25264A   26121.70873358 -.00000051  00000+0  41818-4 0  9996
2 66514  66.0415 231.7132 0007966 269.6209  90.3893 12.80930832 21211
CSG-3                   
1 67304U 26001A   26121.95431169  .00000394  00000+0  56040-4 0  9993
2 67304  97.8883 306.2253 0001360  84.7843 275.3526 14.82149531 17613
